{"type": "FeatureCollection", "features": [{"type": "Feature", "properties": {"norad_id": 28890, "name": "BEIJING 1", "group": "dmc", "lat": -40.13523674463985, "lon": 114.31727803877499, "alt_km": 698.6006957591908, "timestamp": "2025-12-05T18:53:12.963312+00:00", "meta": {"OBJECT_NAME": "BEIJING 1", "OBJECT_ID": "2005-043A", "EPOCH": "2025-12-05T07:35:07.990080", "MEAN_MOTION": 14.63355243, "ECCENTRICITY": 0.00149586, "INCLINATION": 98.2651, "RA_OF_ASC_NODE": 106.8058, "ARG_OF_PERICENTER": 163.8783, "MEAN_ANOMALY": 196.2897, "EPHEMERIS_TYPE": 0, "CLASSIFICATION_TYPE": "U", "NORAD_CAT_ID": 28890, "ELEMENT_SET_NO": 999, "REV_AT_EPOCH": 7229, "BSTAR": 0.00016790347, "MEAN_MOTION_DOT": 8.2e-06, "MEAN_MOTION_DDOT": 0}, "tle": {"line1": "1 28890U 05043A   25339.31606470  .00000820  00000+0  16790-3 0  9993", "line2": "2 28890  98.2651 106.8058 0014958 163.8783 196.2897 14.63355243 72299"}}, "geometry": {"type": "Point", "coordinates": [114.31727803877499, -40.13523674463985]}}, {"type": "Feature", "properties": {"norad_id": 33320, "name": "HUANJING 1A (HJ-1A)", "group": "dmc", "lat": -26.78741601358922, "lon": 144.48347192803666, "alt_km": 637.0758631305489, "timestamp": "2025-12-05T18:53:12.963336+00:00", "meta": {"OBJECT_NAME": "HUANJING 1A (HJ-1A)", "OBJECT_ID": "2008-041A", "EPOCH": "2025-12-05T06:37:32.446272", "MEAN_MOTION": 14.83357551, "ECCENTRICITY": 0.00205716, "INCLINATION": 97.6531, "RA_OF_ASC_NODE": 327.8865, "ARG_OF_PERICENTER": 57.7093, "MEAN_ANOMALY": 302.6111, "EPHEMERIS_TYPE": 0, "CLASSIFICATION_TYPE": "U", "NORAD_CAT_ID": 33320, "ELEMENT_SET_NO": 999, "REV_AT_EPOCH": 92965, "BSTAR": 0.00037745191, "MEAN_MOTION_DOT": 3.054e-05, "MEAN_MOTION_DDOT": 0}, "tle": {"line1": "1 33320U 08041A   25339.27606998  .00003054  00000+0  37745-3 0  9993", "line2": "2 33320  97.6531 327.8865 0020571  57.7093 302.6111 14.83357551929656"}}, "geometry": {"type": "Point", "coordinates": [144.48347192803666, -26.78741601358922]}}, {"type": "Feature", "properties": {"norad_id": 33321, "name": "HUANJING 1B (HJ-1B)", "group": "dmc", "lat": 78.98905714936956, "lon": -71.52111954836438, "alt_km": 587.3982196571196, "timestamp": "2025-12-05T18:53:12.963351+00:00", "meta": {"OBJECT_NAME": "HUANJING 1B (HJ-1B)", "OBJECT_ID": "2008-041B", "EPOCH": "2025-12-05T07:10:57.919872", "MEAN_MOTION": 14.82791299, "ECCENTRICITY": 0.00382463, "INCLINATION": 97.6392, "RA_OF_ASC_NODE": 331.6252, "ARG_OF_PERICENTER": 99.3445, "MEAN_ANOMALY": 261.2097, "EPHEMERIS_TYPE": 0, "CLASSIFICATION_TYPE": "U", "NORAD_CAT_ID": 33321, "ELEMENT_SET_NO": 999, "REV_AT_EPOCH": 92967, "BSTAR": 0.00030388054, "MEAN_MOTION_DOT": 2.437e-05, "MEAN_MOTION_DDOT": 0}, "tle": {"line1": "1 33321U 08041B   25339.29928148  .00002437  00000+0  30388-3 0  9990", "line2": "2 33321  97.6392 331.6252 0038246  99.3445 261.2097 14.82791299929671"}}, "geometry": {"type": "Point", "coordinates": [-71.52111954836438, 78.98905714936956]}}, {"type": "Feature", "properties": {"norad_id": 33446, "name": "YAOGAN-4", "group": "dmc", "lat": -2.8748499591750654, "lon": -89.64480322179453, "alt_km": 614.5800608717309, "timestamp": "2025-12-05T18:53:12.963364+00:00", "meta": {"OBJECT_NAME": "YAOGAN-4", "OBJECT_ID": "2008-061A", "EPOCH": "2025-12-05T05:56:32.138016", "MEAN_MOTION": 14.82645538, "ECCENTRICITY": 0.00142248, "INCLINATION": 97.9172, "RA_OF_ASC_NODE": 269.4209, "ARG_OF_PERICENTER": 348.3495, "MEAN_ANOMALY": 11.7387, "EPHEMERIS_TYPE": 0, "CLASSIFICATION_TYPE": "U", "NORAD_CAT_ID": 33446, "ELEMENT_SET_NO": 999, "REV_AT_EPOCH": 91692, "BSTAR": 0.00038125296, "MEAN_MOTION_DOT": 3.024e-05, "MEAN_MOTION_DDOT": 0}, "tle": {"line1": "1 33446U 08061A   25339.24759419  .00003024  00000+0  38125-3 0  9998", "line2": "2 33446  97.9172 269.4209 0014224 348.3495  11.7387 14.82645538916928"}}, "geometry": {"type": "Point", "coordinates": [-89.64480322179453, -2.8748499591750654]}}, {"type": "Feature", "properties": {"norad_id": 35681, "name": "DEIMOS-1", "group": "dmc", "lat": -39.57373424942511, "lon": 147.14691770671337, "alt_km": 653.1360551066882, "timestamp": "2025-12-05T18:53:12.963376+00:00", "meta": {"OBJECT_NAME": "DEIMOS-1", "OBJECT_ID": "2009-041A", "EPOCH": "2025-12-05T07:40:14.681568", "MEAN_MOTION": 14.74934848, "ECCENTRICITY": 0.000269, "INCLINATION": 97.7146, "RA_OF_ASC_NODE": 140.2688, "ARG_OF_PERICENTER": 93.6149, "MEAN_ANOMALY": 266.5368, "EPHEMERIS_TYPE": 0, "CLASSIFICATION_TYPE": "U", "NORAD_CAT_ID": 35681, "ELEMENT_SET_NO": 999, "REV_AT_EPOCH": 87830, "BSTAR": 0.00020068529, "MEAN_MOTION_DOT": 1.301e-05, "MEAN_MOTION_DDOT": 0}, "tle": {"line1": "1 35681U 09041A   25339.31961437  .00001301  00000+0  20069-3 0  9997", "line2": "2 35681  97.7146 140.2688 0002690  93.6149 266.5368 14.74934848878301"}}, "geometry": {"type": "Point", "coordinates": [147.14691770671337, -39.57373424942511]}}, {"type": "Feature", "properties": {"norad_id": 35683, "name": "UK-DMC 2", "group": "dmc", "lat": -41.17055066465887, "lon": 121.8214884719369, "alt_km": 650.5904388604313, "timestamp": "2025-12-05T18:53:12.963387+00:00", "meta": {"OBJECT_NAME": "UK-DMC 2", "OBJECT_ID": "2009-041C", "EPOCH": "2025-12-05T07:40:59.553408", "MEAN_MOTION": 14.75596404, "ECCENTRICITY": 0.00013427, "INCLINATION": 97.8559, "RA_OF_ASC_NODE": 114.4329, "ARG_OF_PERICENTER": 102.8539, "MEAN_ANOMALY": 257.2821, "EPHEMERIS_TYPE": 0, "CLASSIFICATION_TYPE": "U", "NORAD_CAT_ID": 35683, "ELEMENT_SET_NO": 999, "REV_AT_EPOCH": 87797, "BSTAR": 0.0003269704, "MEAN_MOTION_DOT": 2.181e-05, "MEAN_MOTION_DDOT": 0}, "tle": {"line1": "1 35683U 09041C   25339.32013372  .00002181  00000+0  32697-3 0  9993", "line2": "2 35683  97.8559 114.4329 0001342 102.8539 257.2821 14.75596404877972"}}, "geometry": {"type": "Point", "coordinates": [121.8214884719369, -41.17055066465887]}}, {"type": "Feature", "properties": {"norad_id": 40715, "name": "DMC3-FM1", "group": "dmc", "lat": 57.02081687095048, "lon": 39.218659261471075, "alt_km": 609.4000536135482, "timestamp": "2025-12-05T18:53:12.963397+00:00", "meta": {"OBJECT_NAME": "DMC3-FM1", "OBJECT_ID": "2015-032A", "EPOCH": "2025-12-05T07:01:20.385120", "MEAN_MOTION": 14.8542035, "ECCENTRICITY": 0.00051686, "INCLINATION": 97.6698, "RA_OF_ASC_NODE": 206.7562, "ARG_OF_PERICENTER": 347.8999, "MEAN_ANOMALY": 12.2092, "EPHEMERIS_TYPE": 0, "CLASSIFICATION_TYPE": "U", "NORAD_CAT_ID": 40715, "ELEMENT_SET_NO": 999, "REV_AT_EPOCH": 56112, "BSTAR": 0.00018277454, "MEAN_MOTION_DOT": 1.523e-05, "MEAN_MOTION_DDOT": 0}, "tle": {"line1": "1 40715U 15032A   25339.29259705  .00001523  00000+0  18277-3 0  9997", "line2": "2 40715  97.6698 206.7562 0005168 347.8999  12.2092 14.85420350561124"}}, "geometry": {"type": "Point", "coordinates": [39.218659261471075, 57.02081687095048]}}, {"type": "Feature", "properties": {"norad_id": 40716, "name": "DMC3-FM2", "group": "dmc", "lat": 1.6859416747345441, "lon": -151.55612683936468, "alt_km": 611.0754482027041, "timestamp": "2025-12-05T18:53:12.963408+00:00", "meta": {"OBJECT_NAME": "DMC3-FM2", "OBJECT_ID": "2015-032B", "EPOCH": "2025-12-05T05:56:44.653920", "MEAN_MOTION": 14.85421515, "ECCENTRICITY": 0.00058233, "INCLINATION": 97.6755, "RA_OF_ASC_NODE": 208.1515, "ARG_OF_PERICENTER": 352.4722, "MEAN_ANOMALY": 7.6405, "EPHEMERIS_TYPE": 0, "CLASSIFICATION_TYPE": "U", "NORAD_CAT_ID": 40716, "ELEMENT_SET_NO": 999, "REV_AT_EPOCH": 56111, "BSTAR": 0.00018182841, "MEAN_MOTION_DOT": 1.515e-05, "MEAN_MOTION_DDOT": 0}, "tle": {"line1": "1 40716U 15032B   25339.24773905  .00001515  00000+0  18183-3 0  9993", "line2": "2 40716  97.6755 208.1515 0005823 352.4722   7.6405 14.85421515561116"}}, "geometry": {"type": "Point", "coordinates": [-151.55612683936468, 1.6859416747345441]}}, {"type": "Feature", "properties": {"norad_id": 40717, "name": "DMC3-FM3", "group": "dmc", "lat": -65.33144906229768, "lon": 13.211381947786707, "alt_km": 620.5479313407377, "timestamp": "2025-12-05T18:53:12.963418+00:00", "meta": {"OBJECT_NAME": "DMC3-FM3", "OBJECT_ID": "2015-032C", "EPOCH": "2025-12-05T06:27:48.816864", "MEAN_MOTION": 14.85413944, "ECCENTRICITY": 0.00051786, "INCLINATION": 97.681, "RA_OF_ASC_NODE": 209.8004, "ARG_OF_PERICENTER": 354.6216, "MEAN_ANOMALY": 5.4943, "EPHEMERIS_TYPE": 0, "CLASSIFICATION_TYPE": "U", "NORAD_CAT_ID": 40717, "ELEMENT_SET_NO": 999, "REV_AT_EPOCH": 56112, "BSTAR": 0.00015045885, "MEAN_MOTION_DOT": 1.245e-05, "MEAN_MOTION_DDOT": 0}, "tle": {"line1": "1 40717U 15032C   25339.26931501  .00001245  00000+0  15046-3 0  9999", "line2": "2 40717  97.6810 209.8004 0005178 354.6216   5.4943 14.85413944561126"}}, "geometry": {"type": "Point", "coordinates": [13.211381947786707, -65.33144906229768]}}]}